TEVEL2-9                
1 63237U 25052AD  26189.64245198  .00012819  00000+0  40918-3 0  9995
2 63237  97.3915  84.9331 0008135  74.7614 285.4527 15.32589963 73319
TEVEL2-7                
1 63238U 25052AE  26190.14472437  .00012598  00000+0  40596-3 0  9997
2 63238  97.3915  85.3410 0008177  73.4228 286.7911 15.32290225 73384
TEVEL2-8                
1 63239U 25052AF  26189.69605479  .00011621  00000+0  37502-3 0  9999
2 63239  97.3912  84.8694 0008175  75.3495 284.8653 15.32263765 73319
INNOSAT 16 (RS92S7)     
1 64878U 25155C   26190.30309456  .00004105  00000+0  16371-3 0  9999
2 64878  97.4574 157.3649 0012415 106.0429 254.2177 15.25696957 84040
GEOSCAN 6 (RS92S6)      
1 64879U 25155D   26190.28216856  .00006888  00000+0  23530-3 0  9993
2 64879  97.4564 158.9269 0010022  98.7310 261.5067 15.30577856 84145
GEOSCAN 1 (RS92S1)      
1 64880U 25155E   26190.27570674  .00008380  00000+0  28009-3 0  9990
2 64880  97.4561 159.0882 0009951  98.8445 261.3923 15.31218188 84157
239ALFEROV (RS61S)      
1 64881U 25155F   26190.27805096  .00011317  00000+0  35069-3 0  9998
2 64881  97.4560 159.7284 0009634  98.2467 261.9868 15.33557770 84199
GEOSCAN 2 (RS92S2)      
1 64890U 25155Q   26190.26557794  .00008583  00000+0  28456-3 0  9999
2 64890  97.4560 159.2391 0009262  88.8309 271.3993 15.31476927 84163
GEOSCAN 5 (RS92S5)      
1 64891U 25155R   26190.26254907  .00011032  00000+0  33876-3 0  9995
2 64891  97.4551 159.8586 0008636 102.3419 257.8790 15.33866635 84204
GEOSCAN 4 (RS92S4)      
1 64892U 25155S   26190.24445557  .00011208  00000+0  34233-3 0  9990
2 64892  97.4556 159.8953 0008595 102.4707 257.7498 15.34031176 84202
GEOSCAN 3 (RS92S3)      
1 64893U 25155T   26190.28087198  .00014088  00000+0  40137-3 0  9997
2 64893  97.4543 160.4277 0008616 102.5549 257.6659 15.36167091 84245
INNOSAT 3 (RS92S0)      
1 64894U 25155U   26190.27393615  .00033337  00000+0  69430-3 0  9996
2 64894  97.4490 162.3248 0008299 103.7967 256.4206 15.45496033 84370
KNACKSAT-2              
1 67683U 98067XZ  26189.28582417  .00035828  00000+0  40782-3 0  9992
2 67683  51.6260 188.2015 0008208 303.7179  56.3032 15.61884949 23576
